{"type":"FeatureCollection","name":"Libramiento urbano de Morelia","metadata":{"source":"OpenStreetMap Overpass API","generated_at":"2026-07-19T07:37:43.186Z","circuito_cerrado":true},"features":[{"type":"Feature","geometry":{"type":"MultiLineString","coordinates":[[[-101.1606692,19.6879891],[-101.1608436,19.6878673],[-101.1609778,19.6877736],[-101.1612685,19.6875706],[-101.1615186,19.687396],[-101.1616609,19.6872967],[-101.1617172,19.6872573],[-101.1619379,19.6871032]],[[-101.1878524,19.7211758],[-101.1884601,19.7214412]],[[-101.1840642,19.7192879],[-101.1837959,19.7191705],[-101.1835152,19.7190688],[-101.183334,19.7190137],[-101.1831475,19.7189693],[-101.1829569,19.7189401],[-101.1827642,19.7189285],[-101.182591,19.7189231],[-101.1824178,19.7189333],[-101.182236,19.7189579],[-101.1820584,19.7189963],[-101.181689,19.7191259],[-101.1812748,19.7193328],[-101.1806396,19.7196702],[-101.1804967,19.7197497],[-101.1800813,19.7199548],[-101.1798113,19.7200225],[-101.1796741,19.720041],[-101.1795369,19.720048],[-101.1794037,19.720041],[-101.179268,19.7200203],[-101.1791204,19.7199925],[-101.1789727,19.7199499],[-101.1787354,19.7198592],[-101.1785745,19.7197644],[-101.1784282,19.7196604]],[[-101.220466,19.6771764],[-101.2207977,19.6771421],[-101.2215496,19.6769933],[-101.2218723,19.6769289],[-101.2219495,19.6769164],[-101.2219736,19.6769125],[-101.2222963,19.6768604],[-101.2227667,19.6767843],[-101.2228577,19.6767817],[-101.2231417,19.6767768],[-101.2232452,19.6767707],[-101.2237268,19.6767847],[-101.2239688,19.6767857],[-101.2243168,19.6768046],[-101.2254431,19.6768316],[-101.2254887,19.6768327],[-101.2256412,19.6768364],[-101.2257324,19.6768404]],[[-101.2198483,19.6768965],[-101.2193864,19.6766721]],[[-101.2193409,19.6767696],[-101.2197917,19.6769905]],[[-101.2171313,19.6755417],[-101.2168285,19.6753916],[-101.2162036,19.675082],[-101.2146892,19.6743282],[-101.214488,19.6742313],[-101.2143903,19.674184],[-101.2119097,19.6730074],[-101.2117771,19.6729445],[-101.2114194,19.6727748],[-101.2107747,19.6724689],[-101.2103852,19.6722841],[-101.2099911,19.6721067],[-101.2098974,19.67207],[-101.2097916,19.6720326],[-101.2095152,19.6719473],[-101.2090951,19.6719356],[-101.2088322,19.671957],[-101.2086199,19.6720053],[-101.2084503,19.6720631],[-101.2084102,19.6720794],[-101.2083208,19.6721156],[-101.2067321,19.6730456],[-101.2062222,19.6733387],[-101.2060185,19.6734576],[-101.2059313,19.6735128],[-101.205561,19.673735],[-101.2051275,19.6739933],[-101.2050227,19.6740455]],[[-101.185074,19.7196146],[-101.1845939,19.7194617],[-101.1840642,19.7192879]],[[-101.1720951,19.7148898],[-101.1720139,19.7148305],[-101.1718696,19.7147187],[-101.171454,19.7144294],[-101.1714065,19.7143926],[-101.1713993,19.714387],[-101.1713268,19.7143309],[-101.1702526,19.7134982],[-101.1701699,19.7134415],[-101.1695268,19.7130007]],[[-101.2023209,19.6769286],[-101.2023693,19.6767789]],[[-101.2051626,19.6741255],[-101.2056453,19.6738329],[-101.2064899,19.6733332],[-101.2067859,19.6731558],[-101.2080936,19.6723796],[-101.2083772,19.6722113],[-101.2085967,19.6721207],[-101.2088464,19.67206],[-101.2091472,19.6720517],[-101.209169,19.6720511],[-101.2095061,19.6720813],[-101.2097595,19.6721512],[-101.2098475,19.6721884],[-101.2099414,19.6722279],[-101.2101673,19.6723354],[-101.2121865,19.6733141],[-101.212459,19.6734461],[-101.2130722,19.6737434],[-101.2143016,19.6743392],[-101.2143938,19.674389],[-101.2145943,19.6744812],[-101.2152088,19.6747764],[-101.215632,19.6749797],[-101.2165099,19.6754015],[-101.2165976,19.6754559],[-101.2170608,19.6756748]],[[-101.1781883,19.7194839],[-101.1779957,19.7193434]],[[-101.1783245,19.7199005],[-101.1787041,19.7200917],[-101.1788438,19.7201719],[-101.1789834,19.7202172],[-101.1792317,19.7202632],[-101.1794405,19.7202791],[-101.1796298,19.720277],[-101.1798155,19.7202665],[-101.1799713,19.7202385],[-101.1801217,19.7202021],[-101.1802692,19.7201485],[-101.1804114,19.7200898],[-101.1809068,19.7198065],[-101.1817584,19.7193665],[-101.1819448,19.7192964],[-101.1821303,19.719244],[-101.1822966,19.7192057],[-101.1824629,19.7191816],[-101.1828499,19.7191787],[-101.1831317,19.7192179],[-101.1831488,19.7192218],[-101.1833455,19.7192504]],[[-101.2023175,19.6766108],[-101.2022722,19.67677]],[[-101.1976706,19.681101],[-101.1980349,19.6811835],[-101.1984748,19.6812454],[-101.1986728,19.6812399],[-101.1988893,19.6812238],[-101.1993561,19.6811511],[-101.2002102,19.6809903],[-101.2003738,19.6809372],[-101.2005267,19.6808792],[-101.2006715,19.6808084],[-101.2007708,19.6807453],[-101.20087,19.6806746],[-101.2009607,19.6806],[-101.2010115,19.6805575],[-101.2011007,19.6804461],[-101.2011761,19.6803566],[-101.2012783,19.6801529],[-101.2013769,19.6799338],[-101.2014855,19.6796238],[-101.2020605,19.6777069],[-101.2020984,19.677595],[-101.2022377,19.6772113],[-101.2023075,19.6769782]],[[-101.2022154,19.6769578],[-101.2018575,19.6780743],[-101.201629,19.6787666],[-101.2014339,19.6795121],[-101.2013139,19.6799023],[-101.2012341,19.6801132],[-101.2011483,19.6802817],[-101.2010686,19.680364],[-101.2009657,19.6804945],[-101.200859,19.6805943],[-101.2007042,19.6807068],[-101.2005669,19.680776],[-101.2004618,19.680829],[-101.2003296,19.6808779],[-101.2001485,19.6809139],[-101.200002,19.6809382],[-101.1994007,19.6810176],[-101.1991489,19.6810564],[-101.1989206,19.6810854],[-101.1987221,19.6811032],[-101.1984863,19.6811302],[-101.1982023,19.6810954],[-101.197917,19.681043],[-101.1976501,19.6809841],[-101.197406,19.6809653],[-101.1972046,19.6809514],[-101.1970075,19.680954],[-101.196835,19.6809986],[-101.1967201,19.6810397],[-101.1964021,19.6812214],[-101.1962682,19.6812768],[-101.195744,19.6814293]],[[-101.1494005,19.6942204],[-101.1494362,19.6940504],[-101.1494797,19.6938592],[-101.149573,19.6935211],[-101.1496377,19.6933348],[-101.1497015,19.6931322],[-101.1497912,19.6928916],[-101.1500122,19.6922679],[-101.1500515,19.69209],[-101.1500614,19.6920269]],[[-101.1514599,19.6976079],[-101.1507118,19.6971409],[-101.1502065,19.6968104],[-101.1499352,19.6966023],[-101.1497122,19.6963758],[-101.1495773,19.6961678],[-101.1494469,19.6959029],[-101.149375,19.6956698],[-101.1493274,19.6954431],[-101.1493104,19.6952329]],[[-101.1548696,19.6875253],[-101.1551886,19.6875701],[-101.1556329,19.6876032],[-101.1557356,19.6876144],[-101.1559619,19.687642],[-101.1563924,19.6876955],[-101.1565184,19.6877112],[-101.1573834,19.6878188],[-101.1575142,19.6878333],[-101.1576469,19.6877926]],[[-101.1657444,19.6843336],[-101.1660073,19.6841562]],[[-101.1658427,19.6843674],[-101.1660929,19.6841863]],[[-101.1660929,19.6841863],[-101.1661754,19.6841328],[-101.1663464,19.6840195],[-101.1663882,19.683988],[-101.1666536,19.6838104],[-101.1669407,19.6836082],[-101.1673643,19.6833025],[-101.1677881,19.6829967],[-101.1682223,19.6827523],[-101.1685401,19.6825967],[-101.1687127,19.6825219],[-101.1688395,19.682478],[-101.1690404,19.6824097],[-101.1694024,19.6823074],[-101.1698636,19.6822277],[-101.1703171,19.6821731],[-101.1709002,19.6821515]],[[-101.1660073,19.6841562],[-101.1660839,19.6841041],[-101.1663409,19.6839085],[-101.166421,19.6838506],[-101.1666983,19.6836503],[-101.1675025,19.6830788],[-101.1679184,19.6828177],[-101.1682234,19.6826552],[-101.168436,19.6825508],[-101.1686235,19.682478],[-101.1688593,19.6823945],[-101.1689623,19.6823613],[-101.1690404,19.682336],[-101.1692429,19.6822727]],[[-101.1654946,19.6842838],[-101.1652033,19.6844858],[-101.164948,19.6846632],[-101.1647555,19.6847968],[-101.1647027,19.6848335],[-101.1642864,19.6851314],[-101.1640844,19.6852766],[-101.1638206,19.6854648],[-101.1636343,19.6855981],[-101.1633271,19.6858113],[-101.1631136,19.6859703],[-101.162501,19.6863949],[-101.1622703,19.6865512],[-101.1621428,19.6866483],[-101.1619485,19.6867962],[-101.1618822,19.6868477],[-101.1617599,19.6869881]],[[-101.2380261,19.6875522],[-101.2381014,19.6877354]],[[-101.2381985,19.6876418],[-101.2381183,19.6874533]],[[-101.236983,19.684745],[-101.2363891,19.6833685],[-101.2360039,19.6824736],[-101.2358732,19.6821704],[-101.2357522,19.6818757],[-101.235643,19.6815826],[-101.2356047,19.6814902],[-101.2355817,19.6814381],[-101.2355524,19.6813639],[-101.2353646,19.6809107],[-101.2352174,19.6805608],[-101.2351677,19.6804574],[-101.2345817,19.6792283],[-101.2344347,19.6789133],[-101.2342832,19.6787066],[-101.2340639,19.6785192],[-101.233974,19.6784423],[-101.2338272,19.6783547],[-101.2336777,19.6782656],[-101.2335553,19.6782196],[-101.2331978,19.6780846],[-101.233107,19.6780513],[-101.2330735,19.6780387],[-101.2330652,19.6780355],[-101.2329521,19.6779931],[-101.2329202,19.6779811],[-101.2329101,19.6779772],[-101.2320779,19.6776622]],[[-101.2336628,19.6784377],[-101.2339528,19.6785959],[-101.2339881,19.6786152],[-101.2341664,19.6787696],[-101.2342522,19.6788644],[-101.2343406,19.6790123],[-101.2344808,19.6792634],[-101.2348694,19.6802232],[-101.2350211,19.6805841],[-101.2351252,19.6807699],[-101.2351997,19.6810361],[-101.2352551,19.6811695],[-101.2355102,19.6817392],[-101.2355266,19.6817826],[-101.2355351,19.6817971],[-101.2355461,19.6818344],[-101.235557,19.6818632],[-101.235569,19.681895],[-101.2355706,19.681899],[-101.2356146,19.6820154],[-101.2357057,19.6822212],[-101.2368338,19.684817]],[[-101.1658364,19.6840454],[-101.1657561,19.6841015]],[[-101.1577014,19.6876007],[-101.1574569,19.6875362],[-101.1573593,19.6875228],[-101.1572961,19.6875142],[-101.1570043,19.687492],[-101.1569593,19.6874877],[-101.156726,19.6874607],[-101.1566456,19.687454],[-101.1565997,19.6874501],[-101.1564661,19.6874348],[-101.1562714,19.6874106],[-101.1561315,19.6873969],[-101.1561129,19.6873947],[-101.1560117,19.6873866],[-101.1546029,19.6872139],[-101.1542699,19.6871782],[-101.1541329,19.6871664],[-101.1540085,19.687155],[-101.1539256,19.6871483],[-101.1538223,19.6871475],[-101.153735,19.6871496],[-101.1536463,19.6871583],[-101.1535972,19.6871631],[-101.1535634,19.6871664],[-101.1534682,19.6871839],[-101.1534088,19.6872031]],[[-101.1921601,19.6820332],[-101.1920937,19.6820522],[-101.1917221,19.6820961],[-101.191361,19.6821546],[-101.1911898,19.6821832],[-101.1907762,19.6822341],[-101.1903524,19.6822187],[-101.1900674,19.6821828],[-101.1898044,19.6821167],[-101.1896326,19.6820523],[-101.1894396,19.6819736],[-101.189246,19.6818804],[-101.1886057,19.6815715],[-101.187989,19.6812525],[-101.1877144,19.6811363],[-101.1874927,19.6810428],[-101.1873068,19.6809851],[-101.1871122,19.6809473],[-101.1868927,19.6809069],[-101.1868086,19.6808966],[-101.1866546,19.6808924],[-101.1864435,19.6808876],[-101.1863067,19.6809001]],[[-101.1533326,19.6873895],[-101.1534472,19.6873524],[-101.153564,19.6873339],[-101.1537893,19.6873087],[-101.1541338,19.687295],[-101.154566,19.6873441]],[[-101.1606398,19.6877509],[-101.1604946,19.6878343],[-101.1604303,19.6878695],[-101.1603535,19.6878867],[-101.1602959,19.6878961],[-101.1602205,19.6878995],[-101.1601244,19.6878905],[-101.1596752,19.6878368],[-101.1595728,19.6878245],[-101.1590568,19.6877628]],[[-101.1492136,19.6952378],[-101.1492292,19.6955447],[-101.1492844,19.6958127],[-101.1493571,19.6960032],[-101.149433,19.6961518],[-101.149511,19.6962881],[-101.1495999,19.6964238],[-101.1496967,19.6965316],[-101.1497821,19.6966158],[-101.1498667,19.6966941],[-101.1500005,19.6967933],[-101.1503279,19.6970245],[-101.1506431,19.6972685],[-101.1508491,19.6974121],[-101.1510437,19.6975784]],[[-101.1510799,19.689595],[-101.1511981,19.6894576],[-101.1518662,19.6887751],[-101.152018,19.68862],[-101.1521397,19.6885073],[-101.1524021,19.6882423],[-101.1524741,19.6881086]],[[-101.1521822,19.6883075],[-101.1519921,19.688502],[-101.1518718,19.6886375],[-101.1515176,19.6889843],[-101.1511583,19.6893918],[-101.1510341,19.6895574]],[[-101.1576469,19.6877926],[-101.1577536,19.6878047],[-101.1578039,19.6878104]],[[-101.1510341,19.6895574],[-101.1509508,19.6896703],[-101.1508372,19.6898634],[-101.1507403,19.6900466],[-101.150632,19.6902895],[-101.1505319,19.6905267],[-101.1504411,19.6907851],[-101.1504458,19.6908596]],[[-101.1619379,19.6871032],[-101.1621722,19.6869403],[-101.1623997,19.6867827],[-101.1626382,19.6866168],[-101.1633211,19.6861392],[-101.1635619,19.6859715],[-101.1640147,19.6856427],[-101.1644339,19.6853524],[-101.1645229,19.6852849],[-101.1649897,19.6849708],[-101.1654649,19.6846281],[-101.1658031,19.6843914]],[[-101.1626389,19.6865168],[-101.1626857,19.6864839],[-101.1633694,19.6860033],[-101.1640287,19.6855397],[-101.1642993,19.685358],[-101.1656093,19.6844286],[-101.1656665,19.684343],[-101.1657444,19.6843336]],[[-101.2431824,19.6997977],[-101.2435496,19.700677]],[[-101.2383388,19.6882652],[-101.2386451,19.6889375],[-101.2394722,19.6908864],[-101.2396822,19.6913813],[-101.2402529,19.6927261],[-101.2409556,19.6943944],[-101.2413559,19.6953439],[-101.2415698,19.695825],[-101.2417663,19.6963338],[-101.2419842,19.6968888]],[[-101.1550017,19.7001903],[-101.1544694,19.699768],[-101.153886,19.6993104],[-101.1537384,19.699198],[-101.1533622,19.6989115],[-101.1528961,19.6985341],[-101.1527904,19.6984519],[-101.1522565,19.6980365],[-101.1518055,19.6976948],[-101.1513888,19.6973781],[-101.1512064,19.6972346]],[[-101.2421909,19.6969795],[-101.2416805,19.6957587],[-101.2411011,19.6943647],[-101.2408188,19.6936722],[-101.2406,19.6931352],[-101.2403766,19.6926735],[-101.239657,19.6909731]],[[-101.2436675,19.7006106],[-101.2432978,19.6997506]],[[-101.2424248,19.7057292],[-101.2431754,19.7055478],[-101.2435242,19.7054271],[-101.2437215,19.705325],[-101.2439562,19.7051758],[-101.2441969,19.7049779],[-101.2443082,19.7048429],[-101.2444214,19.7047067],[-101.2444739,19.7046446],[-101.2445406,19.7045361],[-101.2446161,19.7044152],[-101.2447358,19.7041508],[-101.2448133,19.7039103],[-101.244827,19.7037995]],[[-101.1665275,19.7107396],[-101.1659556,19.710294],[-101.1656937,19.7100457],[-101.1651627,19.7093894]],[[-101.1723814,19.7154571],[-101.1726293,19.715648],[-101.1733046,19.7161683],[-101.1736369,19.7164184],[-101.1737121,19.716475],[-101.1746878,19.7172093]],[[-101.1650681,19.7094644],[-101.1656139,19.7100946],[-101.1658625,19.7103382],[-101.166451,19.7108187]],[[-101.2143231,19.7269079],[-101.2181743,19.7273836],[-101.2200737,19.7276031],[-101.2205332,19.7276587],[-101.2208229,19.7276764],[-101.2211099,19.7276613],[-101.221346,19.7276385],[-101.2216517,19.7275754],[-101.2219441,19.7274896],[-101.2222686,19.7273583],[-101.2225342,19.7272043]],[[-101.2435496,19.700677],[-101.2444605,19.70284],[-101.2445519,19.7031363],[-101.2445759,19.7034154],[-101.2445616,19.7036229],[-101.2444886,19.7039946],[-101.2443636,19.7042809],[-101.2442049,19.704558],[-101.2440197,19.7047634],[-101.2438236,19.7049292],[-101.243534,19.7051159],[-101.2432915,19.7052285],[-101.2430887,19.7052925],[-101.2421879,19.7054792],[-101.2416345,19.7055943],[-101.2399219,19.706012],[-101.2382533,19.7064373],[-101.2378019,19.7066204],[-101.2371918,19.7069449],[-101.2366741,19.7072817],[-101.236322,19.7075838],[-101.2362613,19.707636],[-101.2362079,19.7076818],[-101.2360726,19.7077978],[-101.2356864,19.7081998],[-101.2352958,19.7087429],[-101.2341451,19.7104446],[-101.2338937,19.7107865],[-101.2333308,19.7116085],[-101.2327999,19.7123946],[-101.2326362,19.7126256],[-101.2325187,19.7127712],[-101.2321842,19.7132102],[-101.2318587,19.7137071],[-101.2313219,19.7144902],[-101.2307482,19.7153171],[-101.230365,19.715877],[-101.229849,19.7166321],[-101.2297022,19.7168423],[-101.2290774,19.7177859],[-101.2290426,19.7178421]],[[-101.1656782,19.6842807],[-101.1656093,19.6843274],[-101.1642973,19.6852617],[-101.1625945,19.6864706]],[[-101.1919727,19.6821759],[-101.1907841,19.6823455],[-101.1903583,19.682336],[-101.1901242,19.6823105],[-101.1898669,19.6822598],[-101.1896209,19.6821679],[-101.1885827,19.6816369],[-101.1878473,19.6813051],[-101.1874689,19.6811446],[-101.1873238,19.6811028],[-101.1869411,19.6810161],[-101.1866998,19.6809862],[-101.1864532,19.6809816],[-101.1848959,19.6810891],[-101.1813362,19.6812716]],[[-101.1546403,19.7003728],[-101.154814,19.700524],[-101.1555048,19.701068],[-101.1560018,19.7014556],[-101.1565827,19.7019298],[-101.1570661,19.7022906],[-101.1581532,19.7031673],[-101.1582244,19.7032225],[-101.1595956,19.7042893],[-101.160111,19.70467]],[[-101.2295345,19.7174712],[-101.2295529,19.7174427],[-101.2296361,19.7173181],[-101.2305729,19.7158545],[-101.230735,19.7156247],[-101.2315673,19.7144911],[-101.2320891,19.7138327],[-101.2321964,19.7136894],[-101.2340054,19.7110934],[-101.2350976,19.7095416],[-101.2355724,19.7088228],[-101.2359657,19.7082858],[-101.2363067,19.7079228],[-101.236397,19.7078429],[-101.2364875,19.707763],[-101.2366745,19.7075976],[-101.237181,19.7072306],[-101.2375369,19.7070217],[-101.2380571,19.7067825],[-101.2384709,19.7066354],[-101.2389042,19.7065252],[-101.2417125,19.7058465],[-101.2422405,19.7056981],[-101.2430076,19.7054716],[-101.2433441,19.705353],[-101.2435992,19.7052381],[-101.2438895,19.7050369],[-101.2440998,19.7048474],[-101.2443009,19.7046313],[-101.2444883,19.7043222],[-101.2446011,19.704051],[-101.2446967,19.7036397],[-101.2447075,19.7034046],[-101.2446864,19.703102],[-101.244584,19.7027917],[-101.2436675,19.7006106]],[[-101.2290426,19.7178421],[-101.2268391,19.7210197]],[[-101.2224215,19.7269991],[-101.222215,19.7271077],[-101.2220085,19.7271935],[-101.22181,19.7272642],[-101.2216222,19.7273223],[-101.2214264,19.7273602],[-101.2212065,19.7274006],[-101.2208124,19.7274256],[-101.2203132,19.7273601],[-101.2177978,19.7270466],[-101.2177352,19.7270394],[-101.2142982,19.7266436]],[[-101.2270886,19.7211106],[-101.2280837,19.7196222],[-101.2285799,19.7189057],[-101.2295345,19.7174712]],[[-101.1926066,19.7232574],[-101.1933903,19.7236214]],[[-101.1934398,19.7235028],[-101.1926711,19.7231388]],[[-101.1926711,19.7231388],[-101.1916029,19.7226893],[-101.1885503,19.7213505]],[[-101.1765598,19.7185836],[-101.176791,19.7187579]],[[-101.1768956,19.7185555],[-101.1766913,19.7183992]],[[-101.1777894,19.7194998],[-101.1779701,19.7196445]],[[-101.1778166,19.7191984],[-101.1777653,19.7191542],[-101.17749,19.7189563],[-101.1770614,19.718669]],[[-101.1768821,19.7188228],[-101.1775788,19.7193403],[-101.1776954,19.7194269],[-101.1777894,19.7194998]],[[-101.1648425,19.7094476],[-101.1651384,19.709769],[-101.1652744,19.7099641],[-101.1652905,19.7100184],[-101.1652972,19.7100824]],[[-101.2268391,19.7210197],[-101.2266145,19.7213334],[-101.2264915,19.721523],[-101.2255598,19.7229112],[-101.2254816,19.7230355]],[[-101.2257052,19.7231256],[-101.2257902,19.7229873],[-101.2268808,19.7214236],[-101.2270886,19.7211106]],[[-101.2254816,19.7230355],[-101.2246853,19.7242351],[-101.224226,19.7248757],[-101.2236701,19.7256875],[-101.2232691,19.7262846],[-101.2231082,19.726479],[-101.2229741,19.7266027],[-101.2228104,19.7267416],[-101.2226254,19.7268754],[-101.2224215,19.7269991]],[[-101.2225342,19.7272043],[-101.2228158,19.727025],[-101.2230813,19.7268003],[-101.2232907,19.7265833],[-101.2234511,19.7263837],[-101.2241659,19.7253586],[-101.2257052,19.7231256]],[[-101.1512371,19.6891581],[-101.1511173,19.6892753],[-101.1510047,19.6893862],[-101.1509347,19.689479],[-101.1508673,19.6895683],[-101.1508077,19.6896559],[-101.1507282,19.6897735],[-101.1506153,19.6899933],[-101.150592,19.6900388],[-101.1504961,19.6902783],[-101.1504794,19.69032],[-101.1503389,19.6906822]],[[-101.1498966,19.6930108],[-101.1499756,19.6927409],[-101.1500411,19.6925451],[-101.1500523,19.6925012],[-101.1500895,19.6923851],[-101.1501272,19.6922672],[-101.1502014,19.6920219]],[[-101.1657561,19.6841015],[-101.1654946,19.6842838]],[[-101.1658988,19.6841219],[-101.1656782,19.6842807]],[[-101.2029251,19.7254995],[-101.2042698,19.7256777],[-101.2076513,19.726093],[-101.211975,19.726624],[-101.2143231,19.7269079]],[[-101.2142982,19.7266436],[-101.2120594,19.726365],[-101.2076049,19.7258227],[-101.2043154,19.7254222],[-101.2029645,19.7252412]],[[-101.1933903,19.7236214],[-101.1940287,19.7239181],[-101.1945021,19.7241352],[-101.1947542,19.7242236],[-101.1951083,19.7243183],[-101.1959693,19.7245291],[-101.1964409,19.7246164],[-101.1971915,19.7247168],[-101.2009666,19.72524],[-101.2029251,19.7254995]],[[-101.2029645,19.7252412],[-101.2017091,19.725081],[-101.1989841,19.724688],[-101.1958228,19.7242877],[-101.1952626,19.7242231],[-101.1948995,19.7241415],[-101.1945847,19.7240292],[-101.1934398,19.7235028]],[[-101.2316591,19.6776653],[-101.231845,19.6777311],[-101.23187,19.6777407],[-101.2331945,19.6782485],[-101.2336628,19.6784377]],[[-101.2298961,19.6768816],[-101.229662,19.6768419],[-101.2295782,19.6768378],[-101.2295571,19.6768356],[-101.2294422,19.6768235],[-101.2280595,19.6767741],[-101.2271436,19.6767414],[-101.225714,19.6766902],[-101.2256854,19.6766894],[-101.2256469,19.6766882]],[[-101.1500614,19.6920269],[-101.1499259,19.69225],[-101.149576,19.6932578],[-101.149476,19.6935572],[-101.1493694,19.6939481],[-101.1493371,19.6940985],[-101.1493196,19.6942174]],[[-101.1709637,19.6818867],[-101.170419,19.6819141],[-101.1703484,19.6819203],[-101.1701901,19.6819342],[-101.1700264,19.6819486],[-101.1699143,19.6819643],[-101.1695631,19.6820196],[-101.1693197,19.6820707],[-101.1688915,19.6821833],[-101.168515,19.6823276],[-101.1682341,19.6824534],[-101.1680514,19.6825504],[-101.1679759,19.6825942],[-101.1678818,19.6826395],[-101.1676261,19.6827822],[-101.1675561,19.6828348],[-101.1672814,19.6830297],[-101.1672116,19.6830792],[-101.1670683,19.6831889],[-101.1668185,19.6833631],[-101.1665519,19.6835491],[-101.1663889,19.6836683],[-101.1663188,19.6837164],[-101.1661564,19.683827],[-101.1660468,19.6839039],[-101.1658963,19.6840067],[-101.1658364,19.6840454]],[[-101.1709525,19.6819687],[-101.1702577,19.6820118],[-101.169761,19.6820752],[-101.1695746,19.6821099],[-101.1692239,19.6821966],[-101.1689313,19.6822802],[-101.1682302,19.6825445],[-101.167688,19.6828462],[-101.1671857,19.6831937],[-101.1666312,19.6835773],[-101.1659632,19.6840771],[-101.1658988,19.6841219]],[[-101.1741046,19.681859],[-101.1742392,19.6818502],[-101.1753288,19.6817822],[-101.1762729,19.681724],[-101.1772169,19.6816654],[-101.178825,19.6815423],[-101.1804133,19.6814332],[-101.1813514,19.6813644],[-101.1823157,19.681312],[-101.186457,19.6810374],[-101.1866892,19.6810443],[-101.1869374,19.6810765],[-101.1874367,19.6811989],[-101.1878172,19.6813505],[-101.1885593,19.681689],[-101.1888204,19.6818318],[-101.1896004,19.6822239],[-101.1898651,19.6823158],[-101.190144,19.6823674],[-101.1903587,19.682397],[-101.1907875,19.68241],[-101.191115,19.6823682],[-101.1919056,19.6822645],[-101.1921001,19.6822365],[-101.1945984,19.6818176]],[[-101.1742094,19.6819456],[-101.1751976,19.6818854],[-101.1752166,19.6818839],[-101.1764166,19.6818085],[-101.1769921,19.6817724],[-101.1790591,19.6816118],[-101.1794403,19.6815903],[-101.1796184,19.6815792],[-101.1801444,19.6815508],[-101.1802713,19.6815434],[-101.181031,19.6814805]],[[-101.1884601,19.7214412],[-101.1917033,19.7228727],[-101.1926066,19.7232574]],[[-101.1885503,19.7213505],[-101.187912,19.7210676]],[[-101.1738066,19.6818779],[-101.1741046,19.681859]],[[-101.1709222,19.6820648],[-101.1710252,19.6820581],[-101.1721064,19.6819868],[-101.1724258,19.6819657],[-101.1725846,19.6819554],[-101.1738066,19.6818779]],[[-101.1702647,19.6820914],[-101.1709222,19.6820648]],[[-101.1692429,19.6822727],[-101.1696128,19.6821923],[-101.1702647,19.6820914]],[[-101.1504458,19.6908596],[-101.1504988,19.6907914],[-101.1505912,19.690559],[-101.1506776,19.6903056],[-101.1507754,19.6900692],[-101.1508764,19.6898852],[-101.1509903,19.6897073],[-101.1510799,19.689595]],[[-101.1504458,19.6908596],[-101.1504338,19.6909019],[-101.1500614,19.6920269]],[[-101.1493104,19.6952329],[-101.1493185,19.6950307],[-101.1493317,19.6948261],[-101.1494005,19.6942204]],[[-101.195744,19.6814293],[-101.1954526,19.6815093],[-101.1946908,19.6817184],[-101.1945579,19.6817549]],[[-101.1513198,19.6974251],[-101.1509829,19.6971939],[-101.1506531,19.6969467],[-101.1504094,19.696765],[-101.1501336,19.6965531],[-101.1499505,19.6964036],[-101.1497762,19.6962353],[-101.1496758,19.6960931],[-101.1495628,19.6958506],[-101.1495126,19.6956725]],[[-101.1493196,19.6942174],[-101.1492449,19.6948157],[-101.1492136,19.6952378]],[[-101.2256469,19.6766882],[-101.2248096,19.6766626],[-101.2234852,19.6766237],[-101.2232434,19.6766176],[-101.2227971,19.6766377],[-101.2221039,19.6767532],[-101.2218214,19.6768078],[-101.2215582,19.6768621],[-101.2214017,19.6768927]],[[-101.2384491,19.6882043],[-101.2383588,19.6879795],[-101.238339,19.6879374],[-101.2382233,19.687697],[-101.2381985,19.6876418]],[[-101.1750309,19.7171199],[-101.1748874,19.7170069]],[[-101.1766913,19.7183992],[-101.1765063,19.7182538],[-101.1750309,19.7171199]],[[-101.187912,19.7210676],[-101.1852941,19.7198344],[-101.1840642,19.7192879]],[[-101.1839049,19.7194396],[-101.184457,19.7196281],[-101.1850015,19.7198441],[-101.1878524,19.7211758]],[[-101.166451,19.7108187],[-101.1689114,19.7127961],[-101.1691541,19.7129819]],[[-101.1945579,19.6817549],[-101.1921259,19.6821506],[-101.1919727,19.6821759]],[[-101.2193864,19.6766721],[-101.2185102,19.6762179]],[[-101.159073,19.7033967],[-101.1579327,19.7025179],[-101.1573803,19.7020581],[-101.1569814,19.7017487],[-101.1566499,19.7014867],[-101.156033,19.7009984]],[[-101.1631072,19.7066552],[-101.16264,19.7062315],[-101.1620335,19.7057189],[-101.1620074,19.7056969],[-101.1619471,19.7056402]],[[-101.2381014,19.6877354],[-101.2381208,19.6877729],[-101.2382289,19.6880012],[-101.2383388,19.6882652]],[[-101.2257324,19.6768404],[-101.2259219,19.6768451]],[[-101.2259219,19.6768451],[-101.2264834,19.6768652],[-101.2269715,19.6768827],[-101.2280554,19.6769215],[-101.2288124,19.6769486],[-101.2294114,19.67697]],[[-101.1883052,19.6816897],[-101.1886618,19.6818744],[-101.1894391,19.6822641],[-101.1897526,19.6823811],[-101.1900775,19.6824573],[-101.1905603,19.6825021],[-101.1909151,19.6824937],[-101.191292,19.6824428],[-101.1915305,19.6824102],[-101.1918257,19.682378]],[[-101.1945984,19.6818176],[-101.1957219,19.6815264],[-101.195788,19.6815084],[-101.1964884,19.6813001]],[[-101.2023075,19.6769782],[-101.2023209,19.6769286]],[[-101.1813171,19.6811893],[-101.1799753,19.681324],[-101.1793856,19.6813566],[-101.1787422,19.6813949],[-101.1783236,19.6814161],[-101.1778022,19.6814521],[-101.1771529,19.6814944],[-101.1768734,19.681508],[-101.1764543,19.6815398],[-101.1760946,19.6815546],[-101.1756171,19.6815878],[-101.1751863,19.6816063],[-101.1748638,19.6816294],[-101.1742668,19.6816684],[-101.1741276,19.6816773]],[[-101.1625945,19.6864706],[-101.1621496,19.6867508],[-101.1618599,19.6869326],[-101.1617599,19.6869881]],[[-101.1577014,19.6876007],[-101.1564829,19.687588]],[[-101.1564829,19.687588],[-101.1576469,19.6877926]],[[-101.1590896,19.6879568],[-101.1595442,19.6880085],[-101.1596613,19.6880218],[-101.1602303,19.6880866]],[[-101.1619379,19.6871032],[-101.1623151,19.686745],[-101.1626389,19.6865168]],[[-101.1603665,19.6880798],[-101.1605249,19.6880498],[-101.1606692,19.6879891]],[[-101.1491252,19.6948326],[-101.1490979,19.6950272],[-101.1490852,19.6952568],[-101.1490797,19.6953566],[-101.1490779,19.695466],[-101.1490834,19.6957038],[-101.1491255,19.6959092],[-101.1492085,19.6961106],[-101.1493342,19.6963334]],[[-101.1496189,19.6940731],[-101.1496341,19.6939749],[-101.1496621,19.6938007],[-101.1496873,19.6936738],[-101.1497415,19.6934817],[-101.1498966,19.6930108]],[[-101.181031,19.6814805],[-101.1813628,19.6814605],[-101.1816402,19.6814437],[-101.1821745,19.6814115],[-101.1823818,19.681399],[-101.1835871,19.6813262],[-101.1837068,19.6813189],[-101.1840838,19.6812962],[-101.1844657,19.6812731],[-101.1851442,19.6812321],[-101.1852278,19.6812271],[-101.1858239,19.6811911],[-101.1863417,19.6811598]],[[-101.1863417,19.6811598],[-101.1866476,19.6811634],[-101.1868593,19.6811914],[-101.1870125,19.6812215],[-101.1872534,19.6812765],[-101.1876107,19.6814084],[-101.1883052,19.6816897]],[[-101.1863067,19.6809001],[-101.185088,19.6809823],[-101.1847004,19.6810084],[-101.1834436,19.6810931],[-101.1833601,19.6810988],[-101.1827789,19.681138],[-101.1813171,19.6811893]],[[-101.1521181,19.6882299],[-101.1519816,19.6883792],[-101.1519154,19.6884457],[-101.1518,19.688577],[-101.1517292,19.6886547],[-101.151581,19.6888173],[-101.1513571,19.6890392],[-101.1512371,19.6891581]],[[-101.1534088,19.6872031],[-101.1532856,19.687242],[-101.1531591,19.6872905],[-101.1530844,19.687325],[-101.1530409,19.6873466],[-101.152991,19.6873767],[-101.1529496,19.6874061],[-101.1529323,19.6874134],[-101.1528875,19.6874555],[-101.1527918,19.68754],[-101.1527084,19.6876136],[-101.152479,19.6878612]],[[-101.151636,19.6891653],[-101.1518477,19.6889394],[-101.1521993,19.6885871],[-101.1523887,19.6883889],[-101.1526646,19.6881172],[-101.1528873,19.687879],[-101.1531295,19.687662],[-101.1531819,19.6876295],[-101.1534016,19.6875006]],[[-101.1495481,19.6945941],[-101.1495957,19.694244],[-101.1496189,19.6940731]],[[-101.1524741,19.6881086],[-101.1523259,19.6881854],[-101.1521822,19.6883075]],[[-101.1587555,19.6879187],[-101.1589868,19.6879451],[-101.1590896,19.6879568]],[[-101.1506554,19.6907181],[-101.150803,19.690253],[-101.1508313,19.6901939],[-101.1508548,19.6901447],[-101.1509387,19.6899865],[-101.1510215,19.6898647],[-101.1511044,19.6897428],[-101.1514893,19.6893247],[-101.151636,19.6891653]],[[-101.1920779,19.6823402],[-101.1943952,19.6819703],[-101.194636,19.6819375],[-101.1948123,19.6819463],[-101.1949606,19.6819956],[-101.1950648,19.6820431],[-101.1952387,19.6821791],[-101.1953743,19.682319]],[[-101.2180528,19.6761841],[-101.2181271,19.6762201],[-101.2188851,19.6765503],[-101.2193409,19.6767696]],[[-101.1500513,19.6915053],[-101.1499859,19.6917044],[-101.149932,19.6918965],[-101.1498566,19.692098],[-101.1497529,19.692424],[-101.149714,19.6925464],[-101.1496829,19.6926499],[-101.1496294,19.6928284],[-101.1496221,19.692858],[-101.1495534,19.6930701],[-101.149416,19.6935085],[-101.1492981,19.6939128]],[[-101.1590568,19.6877628],[-101.1589611,19.6877514]],[[-101.156033,19.7009984],[-101.1556072,19.7006296]],[[-101.1708198,19.7142564],[-101.1711241,19.7145204],[-101.1711434,19.7145371],[-101.1713338,19.7147019],[-101.1715037,19.71478],[-101.1718156,19.7150209]],[[-101.1784282,19.7196604],[-101.1781883,19.7194839]],[[-101.1503389,19.6906822],[-101.1503126,19.6907505]],[[-101.1813362,19.6812716],[-101.1787485,19.6814669],[-101.1762319,19.681632],[-101.175342,19.6816942],[-101.1750619,19.6817141],[-101.1742598,19.6817639],[-101.1741141,19.6817744]],[[-101.1492981,19.6939128],[-101.1492288,19.6941903],[-101.1491649,19.6945523]],[[-101.1580146,19.6876382],[-101.1578718,19.6876222]],[[-101.1584748,19.6876932],[-101.1581906,19.6876592],[-101.1580146,19.6876382]],[[-101.1580241,19.6878355],[-101.1587555,19.6879187]],[[-101.2380223,19.6872286],[-101.2379852,19.6871401],[-101.237823,19.6867526],[-101.237747,19.6865709],[-101.2376441,19.6863252],[-101.23755,19.6861003],[-101.2371531,19.6851515],[-101.2369934,19.6847699],[-101.236983,19.684745]],[[-101.1748874,19.7170069],[-101.1737988,19.7161816],[-101.1730529,19.715616],[-101.1720951,19.7148898]],[[-101.1779957,19.7193434],[-101.1778166,19.7191984]],[[-101.1503126,19.6907505],[-101.1500513,19.6915053]],[[-101.1493342,19.6963334],[-101.1495892,19.6966079],[-101.149686,19.6967138],[-101.1498511,19.6968332],[-101.1499783,19.6969098],[-101.1500329,19.696943]],[[-101.1491649,19.6945523],[-101.1491252,19.6948326]],[[-101.1945579,19.6817549],[-101.1942989,19.6817261],[-101.1921601,19.6820332]],[[-101.1502014,19.6920219],[-101.1503271,19.6916058],[-101.150508,19.6911198],[-101.1506379,19.6907658],[-101.1506554,19.6907181]],[[-101.1622685,19.7064231],[-101.1623739,19.7065062],[-101.1626011,19.7066853],[-101.1629928,19.7070531],[-101.1633302,19.7073764]],[[-101.160847,19.7052591],[-101.1609055,19.7053103],[-101.1615059,19.7058141],[-101.1622685,19.7064231]],[[-101.1610386,19.7051266],[-101.1607783,19.7049259]],[[-101.1634765,19.7072095],[-101.1630778,19.706787],[-101.1621095,19.7059525],[-101.1610386,19.7051266]],[[-101.1651627,19.7093894],[-101.1646422,19.708742],[-101.1642398,19.7082437],[-101.1637355,19.70757],[-101.1634765,19.7072095]],[[-101.2368338,19.684817],[-101.2369283,19.6850115],[-101.2370845,19.6853923],[-101.2372532,19.6857794],[-101.2379821,19.6874556],[-101.2380261,19.6875522]],[[-101.2303367,19.6772081],[-101.2316591,19.6776653]],[[-101.2050786,19.6741744],[-101.2051626,19.6741255]],[[-101.2023693,19.6767789],[-101.2025846,19.6761404],[-101.2026785,19.6759371],[-101.2027542,19.675797],[-101.2028387,19.6756688],[-101.202946,19.675545],[-101.2030506,19.675432],[-101.203166,19.6753253],[-101.2032835,19.6752348],[-101.2037091,19.6749806],[-101.2048534,19.674303],[-101.2050786,19.6741744]],[[-101.1695268,19.7130007],[-101.1690019,19.71265],[-101.1665275,19.7107396]],[[-101.1506189,19.6967938],[-101.1501392,19.6964105],[-101.1499653,19.6962732],[-101.1497897,19.6960951],[-101.1496586,19.6958744],[-101.1496146,19.6957741],[-101.1495126,19.6956725]],[[-101.1509065,19.6970102],[-101.1506189,19.6967938]],[[-101.2050227,19.6740455],[-101.2047468,19.6742123],[-101.203577,19.6749193],[-101.2032054,19.6751567],[-101.2029793,19.6753442],[-101.2027542,19.6756019],[-101.2026548,19.6757456],[-101.2024941,19.6760363],[-101.2023175,19.6766108]],[[-101.244827,19.7037995],[-101.2448457,19.7036485],[-101.2448529,19.7033732],[-101.2448034,19.7030903],[-101.2446786,19.7027285],[-101.2443273,19.701923],[-101.2441148,19.7014359],[-101.2440155,19.7012082],[-101.2439419,19.7008696]],[[-101.1534016,19.6875006],[-101.1535918,19.6874484],[-101.1536176,19.687445],[-101.1538644,19.6874248],[-101.1540468,19.6874448],[-101.1543097,19.6874694],[-101.1545886,19.6874953],[-101.1546088,19.6874975],[-101.1548696,19.6875253]],[[-101.154566,19.6873441],[-101.1547344,19.6873631],[-101.1558146,19.6874973],[-101.1563418,19.687573],[-101.1564829,19.687588]],[[-101.1524741,19.6881086],[-101.1528401,19.6876902],[-101.1529688,19.6875804],[-101.1531344,19.687473],[-101.1533326,19.6873895]],[[-101.2320779,19.6776622],[-101.231927,19.677608],[-101.2318962,19.6775958],[-101.2303816,19.6770227],[-101.230373,19.6770195]],[[-101.1607783,19.7049259],[-101.1601706,19.7044822]],[[-101.1606207,19.705061],[-101.160847,19.7052591]],[[-101.160111,19.70467],[-101.1603697,19.7048718]],[[-101.2297252,19.6770111],[-101.2298416,19.6770417]],[[-101.2197917,19.6769905],[-101.2200044,19.6770714],[-101.220466,19.6771764]],[[-101.1746878,19.7172093],[-101.1749822,19.7174283],[-101.175492,19.7177952],[-101.1764827,19.7185121]],[[-101.1691541,19.7129819],[-101.1699927,19.7136239],[-101.1700921,19.7137],[-101.1708198,19.7142564]],[[-101.2214017,19.6768927],[-101.2207223,19.6770423],[-101.2204816,19.6770427],[-101.2202714,19.6770261],[-101.2200673,19.6769747],[-101.2198483,19.6768965]],[[-101.1603697,19.7048718],[-101.1606207,19.705061]],[[-101.1570661,19.7022906],[-101.1570575,19.7025126],[-101.1580486,19.7032991],[-101.1581173,19.7033422],[-101.1598914,19.7047361],[-101.1599284,19.7047631],[-101.1600818,19.7048752],[-101.160141,19.7049224]],[[-101.1779701,19.7196445],[-101.1780647,19.719716],[-101.1783245,19.7199005]],[[-101.152479,19.6878612],[-101.1522874,19.6880565],[-101.1521477,19.6881996],[-101.1521181,19.6882299]],[[-101.1578718,19.6876222],[-101.1577014,19.6876007]],[[-101.1578039,19.6878104],[-101.1580241,19.6878355]],[[-101.1495126,19.6956725],[-101.1494905,19.6955487],[-101.1494852,19.6953861],[-101.1495153,19.6948689]],[[-101.1603418,19.704385],[-101.1599359,19.704106],[-101.1598572,19.7040519],[-101.159073,19.7033967]],[[-101.2381183,19.6874533],[-101.2380978,19.6874097]],[[-101.1510437,19.6975784],[-101.1513136,19.6977731],[-101.1515589,19.697945],[-101.1521997,19.6984455],[-101.1527251,19.6988571],[-101.1531784,19.6992121],[-101.1533545,19.6993499],[-101.1536827,19.6996075],[-101.1538486,19.6997377]],[[-101.1509137,19.6975334],[-101.1510437,19.6975784]],[[-101.1617599,19.6869881],[-101.1615729,19.6871157],[-101.1614133,19.6872247],[-101.1613639,19.6872584],[-101.1610342,19.6874917],[-101.1606398,19.6877509]],[[-101.2380978,19.6874097],[-101.2380223,19.6872286]],[[-101.1833455,19.7192504],[-101.1839049,19.7194396]],[[-101.2170608,19.6756748],[-101.2171089,19.6757],[-101.2176534,19.675985]],[[-101.2185102,19.6762179],[-101.2178401,19.6758997],[-101.2175123,19.6757359],[-101.2171313,19.6755417]],[[-101.2300668,19.6769244],[-101.2298961,19.6768816]],[[-101.1589611,19.6877514],[-101.1584748,19.6876932]],[[-101.1741141,19.6817744],[-101.1724156,19.6818777],[-101.1721315,19.681896],[-101.1710489,19.6819659],[-101.1709525,19.6819687]],[[-101.176791,19.7187579],[-101.1768821,19.7188228]],[[-101.1770614,19.718669],[-101.1768956,19.7185555]],[[-101.2022722,19.67677],[-101.2022154,19.6769578]],[[-101.1764827,19.7185121],[-101.1765598,19.7185836]],[[-101.1602303,19.6880866],[-101.1603665,19.6880798]],[[-101.1547999,19.7002098],[-101.1544554,19.6999209],[-101.1538723,19.6994485],[-101.1516632,19.6977542],[-101.1514599,19.6976079]],[[-101.1601706,19.7044822],[-101.1577939,19.7025784],[-101.1553369,19.7006357],[-101.1549162,19.7002965]],[[-101.1538486,19.6997377],[-101.1546403,19.7003728]],[[-101.2176534,19.675985],[-101.2180528,19.6761841]],[[-101.1500329,19.696943],[-101.1502588,19.6970734],[-101.1504872,19.6972282],[-101.1509137,19.6975334]],[[-101.1964884,19.6813001],[-101.1969686,19.6810611],[-101.1971074,19.6810542],[-101.1972242,19.6810444],[-101.1974252,19.6810614],[-101.1976706,19.681101]],[[-101.1709002,19.6821515],[-101.1709912,19.6821452],[-101.1716147,19.6821073],[-101.172,19.6820817],[-101.1722206,19.6820671],[-101.1723213,19.6820614],[-101.1728265,19.6820294],[-101.1734305,19.681993],[-101.1740781,19.6819582],[-101.1742094,19.6819456]],[[-101.160141,19.7049224],[-101.1611682,19.7057638],[-101.1620209,19.7064088],[-101.1621328,19.7064902],[-101.1622301,19.7065716],[-101.1635655,19.7078336]],[[-101.1633302,19.7073764],[-101.1636292,19.7076442],[-101.1641863,19.708345],[-101.1650681,19.7094644]],[[-101.1549162,19.7002965],[-101.1547999,19.7002098]],[[-101.1556072,19.7006296],[-101.1550017,19.7001903]],[[-101.1619471,19.7056402],[-101.161429,19.7052437],[-101.1612346,19.7050648],[-101.1603418,19.704385]],[[-101.1638628,19.7075268],[-101.1634907,19.7070541],[-101.1631072,19.7066552]],[[-101.1658031,19.6843914],[-101.1658427,19.6843674]],[[-101.1512064,19.6972346],[-101.1509065,19.6970102]],[[-101.1514599,19.6976079],[-101.1513198,19.6974251]],[[-101.239657,19.6909731],[-101.2395389,19.6907024],[-101.2393013,19.6901575],[-101.2392094,19.6899469],[-101.238755,19.6888787],[-101.2384491,19.6882043]],[[-101.2432978,19.6997506],[-101.2429811,19.6990684],[-101.2426799,19.6982808],[-101.2422899,19.6972729],[-101.2421909,19.6969795]],[[-101.2439419,19.7008696],[-101.2438893,19.7006233],[-101.2438762,19.7004261],[-101.2438758,19.700325]],[[-101.1635655,19.7078336],[-101.1637362,19.7079883],[-101.164184,19.7086183],[-101.1642346,19.708675]],[[-101.2419842,19.6968888],[-101.242172,19.6973092],[-101.2425837,19.6983711],[-101.2428756,19.6991099],[-101.2431824,19.6997977]],[[-101.1741276,19.6816773],[-101.1728367,19.6817664],[-101.1726554,19.6817808],[-101.1725515,19.6817833],[-101.1723075,19.6817996],[-101.1720266,19.6818178],[-101.1713522,19.6818616],[-101.171057,19.6818834],[-101.1709637,19.6818867]],[[-101.1642346,19.708675],[-101.1645389,19.7090574],[-101.1648425,19.7094476]],[[-101.1495153,19.6948689],[-101.1495481,19.6945941]],[[-101.1918257,19.682378],[-101.1920779,19.6823402]],[[-101.2424326,19.7058209],[-101.2421619,19.705886],[-101.2418513,19.7059807]]]},"properties":{"id":"libramiento-morelia","nombre":"Libramiento de Morelia","color":"#24272b","tipo":"circuito_vial_cerrado","source":"OpenStreetMap Overpass API"}}]}