{"type":"FeatureCollection","name":"Lineas iniciales de sectorizacion Morelia","metadata":{"source":"OpenStreetMap Overpass API y trazo manual inicial","generated_at":"2026-06-22T02:22:54.275Z"},"features":[{"type":"Feature","geometry":{"type":"MultiLineString","coordinates":[[[-101.188283,19.7116953],[-101.1883457,19.7114567],[-101.188452,19.7112569],[-101.1885472,19.711047],[-101.1886447,19.710833]],[[-101.1886738,19.7186219],[-101.1886873,19.7185304],[-101.188698,19.7180327],[-101.1887013,19.7179181],[-101.188728,19.7172938],[-101.1888175,19.7164571],[-101.1889056,19.7161476],[-101.1890611,19.7156523],[-101.1891088,19.7154673],[-101.1891241,19.7152871]],[[-101.1918317,19.6912734],[-101.1918345,19.6911142]],[[-101.1884442,19.7127506],[-101.1884144,19.7126292]],[[-101.1882696,19.7126589],[-101.1883083,19.7128001]],[[-101.1884144,19.7126292],[-101.1883906,19.7125323],[-101.1883056,19.7122315],[-101.1882594,19.7119663],[-101.188283,19.7116953]],[[-101.1885883,19.7176173],[-101.1885569,19.7180561],[-101.1885161,19.7185203],[-101.1884163,19.7195967],[-101.1883482,19.7201865]],[[-101.1883482,19.7201865],[-101.1883205,19.7203456],[-101.1882692,19.7205876],[-101.1882287,19.7207584],[-101.1882096,19.7208408],[-101.1881919,19.7209117],[-101.1881764,19.7209616],[-101.1881365,19.7210635]],[[-101.1913686,19.7047096],[-101.1913932,19.7038491],[-101.1914104,19.7029628],[-101.1914683,19.7028925]],[[-101.1883956,19.710737],[-101.1882074,19.7115425],[-101.1881353,19.7119741],[-101.1881389,19.7120896]],[[-101.1889123,19.7103242],[-101.1890481,19.7101074],[-101.1891809,19.7098896],[-101.1894605,19.7094616],[-101.1897281,19.7090267],[-101.1899129,19.7087096],[-101.1899955,19.7085845],[-101.1902182,19.7082421],[-101.1904046,19.7079576],[-101.1905797,19.7076536],[-101.1907019,19.7073387]],[[-101.1914594,19.7018419],[-101.1914583,19.7009417],[-101.1914862,19.7000404],[-101.1914891,19.6997845],[-101.1915103,19.698259],[-101.1915203,19.6979885],[-101.1915366,19.6977595],[-101.1915751,19.6973356],[-101.1916736,19.6959116],[-101.1917419,19.6948534],[-101.1917722,19.6941441],[-101.1917798,19.6936011],[-101.1917792,19.6929804]],[[-101.1919235,19.6878918],[-101.1919349,19.6874796],[-101.1919473,19.6870329],[-101.1919516,19.6868786],[-101.1919591,19.6866095],[-101.19199,19.6854988],[-101.1920103,19.6847713],[-101.1920252,19.6842336],[-101.192061,19.6829479],[-101.1920779,19.6823402]],[[-101.1886761,19.7107553],[-101.1887582,19.7105863],[-101.1889123,19.7103242]],[[-101.1882452,19.7125699],[-101.1882696,19.7126589]],[[-101.1883544,19.721156],[-101.1884138,19.7209672],[-101.1884452,19.7208673],[-101.1885363,19.7205359],[-101.18859,19.7201926]],[[-101.1912416,19.7058913],[-101.1913488,19.7056004],[-101.1913497,19.7055475],[-101.1913568,19.7053514]],[[-101.1913578,19.7051992],[-101.1913686,19.7047096]],[[-101.1883223,19.7128553],[-101.1883653,19.713001],[-101.1884212,19.7131877],[-101.1884708,19.7133535]],[[-101.1910374,19.7063594],[-101.1912416,19.7058913]],[[-101.1914683,19.7028925],[-101.1914674,19.7028004],[-101.191459,19.7018704],[-101.1914594,19.7018419]],[[-101.1885893,19.7133207],[-101.1884608,19.7128157],[-101.1884442,19.7127506]],[[-101.1883083,19.7128001],[-101.1883223,19.7128553]],[[-101.1913568,19.7053514],[-101.1913578,19.7051992]],[[-101.1830331,19.732286],[-101.1830584,19.7319591],[-101.1831539,19.7308226],[-101.1831875,19.7304705],[-101.1832121,19.7300539],[-101.1832253,19.7298352],[-101.1831707,19.7296311]],[[-101.1920779,19.6823402],[-101.1921001,19.6822365],[-101.1921139,19.6821885],[-101.1921259,19.6821506],[-101.1921601,19.6820332]],[[-101.1884708,19.7133535],[-101.1886387,19.7137626],[-101.1887866,19.7142518],[-101.1890032,19.7151183],[-101.1890169,19.7152631]],[[-101.1918303,19.6913552],[-101.1918317,19.6912734]],[[-101.1890169,19.7152631],[-101.189014,19.7154424],[-101.1889773,19.7156259],[-101.1887191,19.7164466],[-101.1887,19.7166252],[-101.1886724,19.7168317],[-101.1886256,19.7172458],[-101.1885883,19.7176173]],[[-101.1891241,19.7152871],[-101.1890986,19.7151118],[-101.1888509,19.7142308],[-101.1886999,19.7137451],[-101.1885893,19.7133207]],[[-101.1886106,19.7199427],[-101.1886218,19.7193186],[-101.1886352,19.7190928],[-101.1886738,19.7186219]],[[-101.18859,19.7201926],[-101.1886106,19.7199427]],[[-101.1881389,19.7120896],[-101.1881507,19.7121661],[-101.1881637,19.7122693],[-101.1882452,19.7125699]],[[-101.1907019,19.7073387],[-101.1908469,19.7069343],[-101.1910374,19.7063594]],[[-101.1886447,19.710833],[-101.1886761,19.7107553]],[[-101.1918358,19.6910424],[-101.1918582,19.6902359],[-101.1918739,19.689674],[-101.1918764,19.6895834],[-101.1918917,19.6890892]],[[-101.1917974,19.6923945],[-101.1917995,19.692361],[-101.1918303,19.6913552]],[[-101.1918345,19.6911142],[-101.1918358,19.6910424]],[[-101.1918917,19.6890892],[-101.1919235,19.6878918]],[[-101.1917792,19.6929804],[-101.1917903,19.6927088],[-101.1917974,19.6923945]]]},"properties":{"id":"sector-morelos-camelinas","nombre":"Sector 01 · Avenida Morelos Norte-Morelos Sur","color":"#0284c7","tipo":"linea_sector","source":"OpenStreetMap Overpass API"}},{"type":"Feature","geometry":{"type":"MultiLineString","coordinates":[[[-101.2452381,19.6997415],[-101.2397384,19.7010717]],[[-101.2041507,19.7025095],[-101.2042474,19.7024984],[-101.2045624,19.7024705],[-101.2047073,19.7024517],[-101.2057598,19.7023744],[-101.2058845,19.702366],[-101.2060504,19.702355],[-101.2062627,19.7023348]],[[-101.1414242,19.6921096],[-101.1411595,19.6921292],[-101.1410654,19.692138]],[[-101.2397384,19.7010717],[-101.2384478,19.7014004]],[[-101.2397592,19.7011697],[-101.2434543,19.7002907],[-101.2452757,19.6998325]],[[-101.1414482,19.6922974],[-101.141761,19.6922881],[-101.1422932,19.6922384],[-101.1425829,19.6921704]],[[-101.2142196,19.7027136],[-101.2134268,19.7023333],[-101.2126286,19.701891],[-101.2124477,19.7018371],[-101.2122303,19.7018378]],[[-101.2075193,19.7021489],[-101.2074692,19.7021236],[-101.2074427,19.7021097],[-101.2074175,19.7020528]],[[-101.21223,19.7019067],[-101.2124266,19.7019036],[-101.212599,19.7019539],[-101.2133876,19.7023816],[-101.2141724,19.7027963]],[[-101.2136968,19.7026543],[-101.2147502,19.7032373],[-101.2157623,19.7037409],[-101.2159216,19.7037574],[-101.2161295,19.7037738]],[[-101.2167782,19.704097],[-101.2179922,19.7047202],[-101.2192607,19.7053747],[-101.2194707,19.7054742],[-101.2196628,19.705531],[-101.2198043,19.7055466],[-101.2199424,19.7055521],[-101.2200961,19.7055425],[-101.2211512,19.7053725],[-101.2215823,19.705299],[-101.2222339,19.7052114],[-101.2223013,19.7052004],[-101.2228352,19.7051063],[-101.2231074,19.7050635],[-101.2237144,19.7049678],[-101.2242354,19.7048707]],[[-101.21263,19.7020453],[-101.2131683,19.7023498],[-101.2132348,19.7023874],[-101.2133194,19.7024352]],[[-101.1493001,19.6867051],[-101.1488623,19.6867786],[-101.1487023,19.6868054],[-101.1482755,19.6868654],[-101.1479994,19.6869086],[-101.1478583,19.6869307],[-101.1474425,19.6869957],[-101.1474001,19.6870023],[-101.1470323,19.6870599],[-101.1466332,19.6871303],[-101.146185,19.6871915],[-101.1459019,19.6872367]],[[-101.2429822,19.7001137],[-101.2426511,19.7002701],[-101.2424023,19.7003407],[-101.2418238,19.7004898],[-101.2417796,19.7005008],[-101.2400926,19.7009206],[-101.2385926,19.7012701]],[[-101.1914683,19.7028925],[-101.1915385,19.7028929],[-101.1922786,19.7029093],[-101.1923928,19.7029118],[-101.1931509,19.7029285],[-101.1932564,19.7029308],[-101.1933366,19.7029327],[-101.1939787,19.7029445],[-101.1940774,19.7029512]],[[-101.1682834,19.6967552],[-101.1686575,19.6968265],[-101.1694999,19.696987],[-101.1699659,19.6970758],[-101.1706515,19.6972064],[-101.1714137,19.6973516],[-101.1722663,19.697514],[-101.1731759,19.6976873],[-101.1732103,19.6976938],[-101.1740718,19.697858],[-101.1749847,19.6980319],[-101.1757912,19.6981855]],[[-101.1495153,19.6948689],[-101.1496518,19.6948783],[-101.1501301,19.6949114],[-101.1504361,19.6949383]],[[-101.1501386,19.6946467],[-101.1498192,19.6946143],[-101.1496908,19.6946047],[-101.1495481,19.6945941]],[[-101.1437356,19.6921612],[-101.1436037,19.6921225],[-101.1434302,19.6920771],[-101.1432037,19.6920447],[-101.1429966,19.6920246],[-101.1428167,19.6920208],[-101.142519,19.6920315],[-101.1414242,19.6921096]],[[-101.2242907,19.7047533],[-101.2236569,19.7048885],[-101.2233234,19.7049442],[-101.2222191,19.7051281],[-101.2211357,19.7053095],[-101.2200866,19.7054816],[-101.2199322,19.7054887],[-101.2198026,19.7054832],[-101.2196648,19.7054659],[-101.2194864,19.7054063],[-101.219287,19.7053178],[-101.218025,19.7046663],[-101.2171629,19.7041997],[-101.216965,19.7040886]],[[-101.2390192,19.7013291],[-101.2397592,19.7011697]],[[-101.205907,19.702244],[-101.2058698,19.7022466],[-101.2058457,19.7022482],[-101.205488,19.7022776],[-101.2052431,19.7022942],[-101.2046971,19.7023484]],[[-101.1504361,19.6949383],[-101.1508001,19.6949591],[-101.1516465,19.6950206],[-101.1525039,19.6950921],[-101.1537843,19.6951908],[-101.1549702,19.6952982],[-101.1556937,19.6953651],[-101.1562861,19.6954219],[-101.1568733,19.6954703],[-101.1574844,19.695515],[-101.1586186,19.6955943]],[[-101.2242907,19.7047533],[-101.2241461,19.7046947],[-101.223663,19.7047833],[-101.2233037,19.7048498],[-101.222988,19.7049037],[-101.2221991,19.7050348],[-101.2215575,19.7051419],[-101.2213709,19.7051743],[-101.2206892,19.7052925],[-101.2203759,19.7053419],[-101.2200737,19.7053896],[-101.219922,19.7053965],[-101.2197997,19.705386],[-101.2196633,19.7053618],[-101.2194876,19.7053062],[-101.2193122,19.7052248],[-101.2180647,19.7045951],[-101.2170688,19.7040508],[-101.2167149,19.7038677],[-101.2163904,19.7037038],[-101.2162684,19.7036385]],[[-101.2259362,19.7044798],[-101.2261461,19.7044869],[-101.2268545,19.7043169],[-101.2282049,19.7040178],[-101.2288243,19.7038807],[-101.2299763,19.7035901],[-101.2303881,19.7034869],[-101.2310807,19.7033125],[-101.2314992,19.7032147],[-101.232882,19.7028918],[-101.2339504,19.7026423],[-101.2346309,19.7024834]],[[-101.2167782,19.704097],[-101.2168171,19.704174],[-101.2170631,19.7043331],[-101.2179392,19.7047961],[-101.2192329,19.7054589],[-101.2194687,19.7055628],[-101.2196805,19.7056085],[-101.2197968,19.705637],[-101.2199567,19.705642],[-101.2201216,19.7056288],[-101.2202683,19.7056123],[-101.2206067,19.7055594],[-101.2211722,19.7054659],[-101.2217954,19.7053546],[-101.2219638,19.7053289],[-101.2222123,19.7052851],[-101.2223181,19.7052673],[-101.2226458,19.7052122],[-101.222847,19.705177],[-101.2229607,19.7051593],[-101.2231225,19.7051342],[-101.2241026,19.7049755],[-101.2242354,19.7048707]],[[-101.2393221,19.7013623],[-101.2401282,19.7011727],[-101.2413425,19.7008758],[-101.2418367,19.7007556],[-101.2418799,19.7007458],[-101.2422853,19.7006526],[-101.2428411,19.7005197],[-101.2431676,19.7005342]],[[-101.2162684,19.7036385],[-101.2160204,19.7035089],[-101.2150782,19.7030166],[-101.2140158,19.7024615],[-101.2139605,19.7024327],[-101.2137267,19.7023105]],[[-101.2040947,19.7024309],[-101.2039664,19.7024484],[-101.2037463,19.7024857],[-101.2036345,19.7025202],[-101.2033319,19.7025896]],[[-101.2135338,19.7022128],[-101.2134587,19.7021749],[-101.2133817,19.7021361],[-101.2128114,19.7018488]],[[-101.1758215,19.6980567],[-101.1745103,19.6978066],[-101.1737692,19.6976652],[-101.1734667,19.6976074],[-101.1734229,19.6975991],[-101.1724698,19.6974172],[-101.1716008,19.6972514],[-101.1707184,19.697083]],[[-101.1781075,19.699081],[-101.1782066,19.6991703],[-101.1783101,19.6992634],[-101.1789306,19.6998248],[-101.1801896,19.7009559],[-101.1813929,19.7020395],[-101.1816647,19.7022584],[-101.1821134,19.7026358],[-101.1821862,19.7027026],[-101.1822686,19.702781]],[[-101.1318278,19.6859041],[-101.1317495,19.6859578],[-101.1316931,19.6859578],[-101.1313317,19.6858608],[-101.1311583,19.6858406],[-101.1309743,19.6858618],[-101.1308001,19.6859047],[-101.1306969,19.6859366],[-101.130309,19.6861169],[-101.1299028,19.686348],[-101.1294293,19.6865803],[-101.1289988,19.6867912],[-101.128558,19.6870081]],[[-101.1940774,19.7029512],[-101.1939786,19.7028347],[-101.1933375,19.7028278],[-101.1932578,19.7028269],[-101.1931523,19.7028258],[-101.1923929,19.7028176],[-101.1922784,19.7028163],[-101.1915382,19.7028083],[-101.1914683,19.7028925]],[[-101.2001421,19.7030345],[-101.1997828,19.7030283],[-101.1984425,19.7030396],[-101.1968579,19.703001]],[[-101.1814037,19.7019074],[-101.1798035,19.700463],[-101.1791214,19.6998473],[-101.1785526,19.6993339],[-101.178289,19.6990959]],[[-101.1588826,19.6953659],[-101.1567852,19.6951981],[-101.1562212,19.6951509],[-101.155845,19.6951194],[-101.1553875,19.6950811],[-101.154992,19.6950496],[-101.1549116,19.6950426],[-101.154587,19.6950194],[-101.1542318,19.6949968],[-101.1535353,19.6949349],[-101.1525428,19.6948538],[-101.1508231,19.6947127],[-101.1501386,19.6946467]],[[-101.14576,19.6872057],[-101.1456502,19.6871494],[-101.1451488,19.6872117],[-101.1447501,19.6875439],[-101.144608,19.6876397],[-101.1443444,19.6876853],[-101.1439261,19.6877512],[-101.1435194,19.6878246],[-101.1430924,19.6879],[-101.1422441,19.6880324]],[[-101.1706159,19.6975572],[-101.1694571,19.6974595]],[[-101.1713728,19.6976499],[-101.1722441,19.6977398]],[[-101.2345598,19.7022319],[-101.2332781,19.7025495],[-101.2327664,19.7026708],[-101.2327222,19.7026808],[-101.2313561,19.7029923],[-101.2311429,19.7030457],[-101.2305944,19.7031724]],[[-101.2250296,19.7045844],[-101.2247904,19.7046434],[-101.2243418,19.7047432],[-101.2242907,19.7047533]],[[-101.2384478,19.7014004],[-101.2363911,19.7018626],[-101.2345833,19.7023154],[-101.2308336,19.7032144]],[[-101.2251095,19.7046781],[-101.2253984,19.7046081],[-101.2256216,19.704554],[-101.2257935,19.7045135],[-101.2259362,19.7044798]],[[-101.2296585,19.7035681],[-101.2337101,19.702599],[-101.2346007,19.702386],[-101.2390192,19.7013291]],[[-101.2162443,19.7037347],[-101.2162253,19.7037235],[-101.2161503,19.7036872],[-101.2142196,19.7027136]],[[-101.216965,19.7040886],[-101.2165518,19.7038677],[-101.2163011,19.7037581],[-101.2162443,19.7037347]],[[-101.2161295,19.7037738],[-101.2161415,19.7037801],[-101.2162128,19.7038171],[-101.2162223,19.7038219]],[[-101.2141724,19.7027963],[-101.2144196,19.7029194],[-101.2159411,19.7036771],[-101.2160546,19.7037349],[-101.2161133,19.7037654],[-101.2161295,19.7037738]],[[-101.1781805,19.698998],[-101.1780313,19.6988785],[-101.1773846,19.6984607],[-101.1759308,19.6980832]],[[-101.1759002,19.6982082],[-101.1767301,19.6984166],[-101.1772954,19.6985517],[-101.1779679,19.6989626],[-101.1781075,19.699081]],[[-101.1513302,19.6863876],[-101.1503496,19.686541],[-101.1493724,19.6866938]],[[-101.2250768,19.7045697],[-101.2250296,19.7045844]],[[-101.2258102,19.7043973],[-101.2250768,19.7045697]],[[-101.2250189,19.7046968],[-101.2251095,19.7046781]],[[-101.2242354,19.7048707],[-101.2243688,19.704847],[-101.2245143,19.7048164],[-101.2250189,19.7046968]],[[-101.1495481,19.6945941],[-101.1491649,19.6945523]],[[-101.16354,19.6958457],[-101.1635182,19.6958067],[-101.1634974,19.6957796],[-101.1634592,19.6957562],[-101.1634169,19.6957425],[-101.163071,19.6957165],[-101.1625278,19.6956718],[-101.1618664,19.6956205],[-101.1614003,19.6955783],[-101.1608853,19.6955319],[-101.1604635,19.6954936],[-101.1599026,19.6954442],[-101.1589966,19.6953728]],[[-101.1481404,19.6944684],[-101.147797,19.6944211],[-101.1474967,19.6943379],[-101.1472998,19.6942725],[-101.147166,19.6942069],[-101.1471191,19.6941837],[-101.1469667,19.6940945],[-101.1467938,19.693995],[-101.1464013,19.6937447]],[[-101.1444878,19.6926399],[-101.1445216,19.6926896],[-101.1446084,19.6927294],[-101.1447338,19.6927927],[-101.1449377,19.6928868],[-101.1449942,19.6929128],[-101.1452544,19.6930593],[-101.1453915,19.693147],[-101.1454368,19.6931754],[-101.1456128,19.6933196],[-101.1459858,19.6936358],[-101.1464271,19.6939727],[-101.1466798,19.6941488],[-101.1468298,19.6942408]],[[-101.1903876,19.7028749],[-101.1897349,19.7028551]],[[-101.1914683,19.7028925],[-101.1914115,19.7028915],[-101.1903876,19.7028749]],[[-101.2033319,19.7025896],[-101.2024391,19.70273],[-101.2016882,19.7028391]],[[-101.2046971,19.7023484],[-101.2041956,19.702417]],[[-101.2062074,19.7022156],[-101.2059422,19.7022415],[-101.205907,19.702244]],[[-101.2122303,19.7018378],[-101.2116934,19.7018603],[-101.2116067,19.7018546],[-101.2115903,19.7018535]],[[-101.2127257,19.7018057],[-101.2125891,19.7017717],[-101.2124658,19.7017716],[-101.2116883,19.7018157]],[[-101.2115776,19.7019782],[-101.2117102,19.7019316],[-101.21223,19.7019067]],[[-101.2016882,19.7028391],[-101.2001421,19.7030345]],[[-101.164499,19.6958961],[-101.16354,19.6958457]],[[-101.1589966,19.6953728],[-101.1588826,19.6953659]],[[-101.1897349,19.7028551],[-101.1887922,19.7028284],[-101.1879922,19.7028183]],[[-101.1950691,19.702965],[-101.1941889,19.7029529],[-101.1941278,19.7029519]],[[-101.2296194,19.7034025],[-101.2289317,19.7035663],[-101.2278827,19.7038173],[-101.2268025,19.7040762],[-101.2266434,19.7041161],[-101.2261176,19.7042472],[-101.2259882,19.7042806]],[[-101.2115776,19.7019782],[-101.2117663,19.7019867],[-101.2120736,19.7019645],[-101.2124116,19.7019589],[-101.2125361,19.7019916],[-101.2125967,19.7020251]],[[-101.2259362,19.7044798],[-101.2268258,19.7042499],[-101.2296585,19.7035681]],[[-101.1633894,19.6959081],[-101.1634337,19.695921],[-101.1634774,19.6959407],[-101.1635219,19.6959667]],[[-101.1633395,19.6959908],[-101.1634287,19.6959886],[-101.1635219,19.6959667]],[[-101.2071178,19.7022887],[-101.2073964,19.7022694],[-101.2075836,19.7022565],[-101.2080181,19.7022265],[-101.208876,19.7021673]],[[-101.2033319,19.7025896],[-101.2036416,19.7025641],[-101.2037602,19.7025543],[-101.2040366,19.7025244],[-101.2041507,19.7025095]],[[-101.2125967,19.7020251],[-101.21263,19.7020453]],[[-101.1824214,19.7027255],[-101.1823317,19.702663],[-101.181908,19.7023129],[-101.1814037,19.7019074]],[[-101.178289,19.6990959],[-101.1781805,19.698998]],[[-101.1491649,19.6945523],[-101.14897,19.6945387],[-101.1487539,19.6945236],[-101.1484726,19.6944982],[-101.1481404,19.6944684]],[[-101.1876842,19.7028169],[-101.1873199,19.7028141]],[[-101.2128114,19.7018488],[-101.2127257,19.7018057]],[[-101.2115903,19.7018535],[-101.2106446,19.7019203]],[[-101.1635219,19.6959667],[-101.1639576,19.696017],[-101.1643681,19.6960584],[-101.1650766,19.6961451],[-101.1657116,19.6962657],[-101.1658061,19.6962833]],[[-101.1493724,19.6866938],[-101.1493001,19.6867051]],[[-101.1459019,19.6872367],[-101.14576,19.6872057]],[[-101.1589149,19.6956157],[-101.1594087,19.6956522],[-101.1600078,19.6956962],[-101.1606172,19.6957491],[-101.1612516,19.6958024],[-101.16176,19.6958511],[-101.1618638,19.695861],[-101.1624526,19.6959127],[-101.1631722,19.6959815],[-101.1633395,19.6959908]],[[-101.1586186,19.6955943],[-101.1588037,19.6956068]],[[-101.1757912,19.6981855],[-101.1759002,19.6982082]],[[-101.2385926,19.7012701],[-101.23771,19.7014793]],[[-101.1759308,19.6980832],[-101.1758215,19.6980567]],[[-101.208876,19.7021673],[-101.2097363,19.7021007],[-101.2106479,19.7020339]],[[-101.1491252,19.6948326],[-101.1495153,19.6948689]],[[-101.1588037,19.6956068],[-101.1589149,19.6956157]],[[-101.1476953,19.6946388],[-101.1479268,19.6946846],[-101.14821,19.6947439],[-101.1483468,19.6947607],[-101.1488538,19.6948013],[-101.1489428,19.6948116],[-101.1491252,19.6948326]],[[-101.2066408,19.7023104],[-101.2068624,19.7023032]],[[-101.2363013,19.7020952],[-101.2367203,19.7019884],[-101.2369972,19.7019235],[-101.2381612,19.7016457],[-101.2387719,19.7015002],[-101.2393221,19.7013623]],[[-101.2062627,19.7023348],[-101.2064076,19.7023221],[-101.2066408,19.7023104]],[[-101.2106479,19.7020339],[-101.2115776,19.7019782]],[[-101.1879922,19.7028183],[-101.1876842,19.7028169]],[[-101.1660167,19.6963234],[-101.1665635,19.6964276],[-101.1676541,19.6966354]],[[-101.2346309,19.7024834],[-101.2350986,19.7023726],[-101.2363013,19.7020952]],[[-101.2305944,19.7031724],[-101.2301322,19.7032792],[-101.2296194,19.7034025]],[[-101.2308336,19.7032144],[-101.2296421,19.7035001],[-101.2267961,19.7041664],[-101.2258102,19.7043973]],[[-101.2041956,19.702417],[-101.2040947,19.7024309]],[[-101.2135778,19.7025814],[-101.2136968,19.7026543]],[[-101.23771,19.7014793],[-101.2369622,19.7016589],[-101.2351208,19.7020981],[-101.2345598,19.7022319]],[[-101.2068624,19.7023032],[-101.2071178,19.7022887]],[[-101.1676809,19.6965033],[-101.1658282,19.6961498]],[[-101.1658282,19.6961498],[-101.1657336,19.6961317],[-101.1650105,19.6959871],[-101.164499,19.6958961]],[[-101.1468298,19.6942408],[-101.1470578,19.6943809],[-101.1473704,19.6945314],[-101.1476135,19.6946181],[-101.1476953,19.6946388]],[[-101.1968579,19.703001],[-101.1959533,19.7029876],[-101.1953722,19.7029744],[-101.1950691,19.702965]],[[-101.2106446,19.7019203],[-101.2097047,19.7019998]],[[-101.1681913,19.6967377],[-101.1682834,19.6967552]],[[-101.1676541,19.6966354],[-101.1681913,19.6967377]],[[-101.1658061,19.6962833],[-101.1660167,19.6963234]],[[-101.2116883,19.7018157],[-101.2115903,19.7018535]],[[-101.2133194,19.7024352],[-101.21339,19.7024752]],[[-101.1707184,19.697083],[-101.1701002,19.696965],[-101.1697528,19.6968987],[-101.168273,19.6966163],[-101.1681837,19.6965993],[-101.1676809,19.6965033]],[[-101.2097047,19.7019998],[-101.2088952,19.7020522],[-101.2075193,19.7021489]],[[-101.2162223,19.7038219],[-101.2165083,19.7039627],[-101.2167782,19.704097]]]},"properties":{"id":"sector-francisco-i-madero","nombre":"Sector 02 · Avenida Francisco I. Madero-Acueducto","color":"#dc2626","tipo":"linea_sector","source":"OpenStreetMap Overpass API"}}]}